[{"OBJECT_NAME":"STARLINK-1573","OBJECT_ID":"2020-055AL","EPOCH":"2026-03-09T12:00:54.467424","MEAN_MOTION":15.30196401,"ECCENTRICITY":0.00016013,"INCLINATION":53.1594,"RA_OF_ASC_NODE":114.7412,"ARG_OF_PERICENTER":89.6069,"MEAN_ANOMALY":270.5115,"EPHEMERIS_TYPE":0,"CLASSIFICATION_TYPE":"U","NORAD_CAT_ID":46061,"ELEMENT_SET_NO":999,"REV_AT_EPOCH":30904,"BSTAR":2.6132016e-5,"MEAN_MOTION_DOT":4.15e-6,"MEAN_MOTION_DDOT":0},{"OBJECT_NAME":"STARLINK-1559","OBJECT_ID":"2020-055BC","EPOCH":"2026-03-09T05:36:23.522976","MEAN_MOTION":15.29461733,"ECCENTRICITY":0.0004229,"INCLINATION":53.0254,"RA_OF_ASC_NODE":76.0659,"ARG_OF_PERICENTER":33.971,"MEAN_ANOMALY":326.1559,"EPHEMERIS_TYPE":0,"CLASSIFICATION_TYPE":"U","NORAD_CAT_ID":46077,"ELEMENT_SET_NO":999,"REV_AT_EPOCH":30951,"BSTAR":0.0014778793,"MEAN_MOTION_DOT":0.00042685,"MEAN_MOTION_DDOT":0}]
